{"id":"599","name":"Jupiter ","centerId":"500@10","centerName":"Sun ","epoch":"2000-Jan-01 12:00:00.0000","elementTable":{"periapsis":740573662608.8763,"inclination":0.022770099256999625,"longitudeOfAscendingNode":1.753901435747497,"argumentOfPeriapsis":4.800860882673969,"timeOfPeriapsis":2451318.4544933103,"meanMotion":1.6777485411076366e-8,"meanAnomaly":0.32839464384879863,"trueAnomaly":0.3617815540954529,"apoapsis":816541568783.3751,"siderealOrbitPeriod":374501014.4983632,"semiMajorAxis":778557615696.1257,"semiMinorAxis":777630490828.5823,"semiLatusRectum":776704470003.3123,"eccentricity":0.04878759429164036,"linearEccentricity":37983953087.25008},"physicalDataTable":{"meanRadius":69911000,"mass":1.89818722e+30,"siderealRotationRate":0.00017585,"siderealRotationPeriod":35730.36853670507,"gravParameter":126686531900,"obliquity":3.13},"vectorTable":{"position":[694726633410.9238,0,-262911083954.00137],"velocity":[-4626.56746818866,0,-12863.155442183244]}}
